{"type":"FeatureCollection","features":[{"type":"Feature","geometry":{"bbox":[127.42115607556322,-1.6591371656208014,127.4213308285799,-1.658147839868533],"type":"Polygon","coordinates":[[[127.42130231439417,-1.6581478169852508],[127.4213308265359,-1.6581504191202967],[127.42120157012631,-1.6591372021561712],[127.42115608016547,-1.6591313623048596],[127.4211812076832,-1.658957927706145],[127.42119916453824,-1.6589385977258988],[127.42130231439417,-1.6581478169852508]]]},"properties":{"feature_id":"fasum-soligi-0","Nama Fasum":"Dermaga"}},{"type":"Feature","geometry":{"bbox":[127.42119470751155,-1.6560131709766877,127.42127879474533,-1.6559233126852626],"type":"Polygon","coordinates":[[[127.42121310668956,-1.655923260037392],[127.42127873756071,-1.6559955648707898],[127.42125939981076,-1.6560132228299087],[127.42119476801996,-1.6559367239988136],[127.42121310668956,-1.655923260037392]]]},"properties":{"feature_id":"fasum-soligi-1","Nama Fasum":"Jembatan"}},{"type":"Feature","geometry":{"bbox":[127.42098062430705,-1.658074947461629,127.42187230905446,-1.657402894709316],"type":"Polygon","coordinates":[[[127.4211501309298,-1.6574023154766047],[127.42187207857395,-1.65769393457073],[127.42171186351875,-1.6580755342610178],[127.42098085545898,-1.657783291639328],[127.4211501309298,-1.6574023154766047]]]},"properties":{"feature_id":"fasum-soligi-2","Nama Fasum":"Lapangan Desa"}},{"type":"Feature","geometry":{"bbox":[127.42459128754199,-1.6629787177350892,127.42483538850182,-1.6626824292724813],"type":"Polygon","coordinates":[[[127.42459151299023,-1.6626944481607866],[127.42481662959115,-1.6626824142104806],[127.4248351595677,-1.662971140592945],[127.42461225338415,-1.6629787345744846],[127.42459151299023,-1.6626944481607866]]]},"properties":{"feature_id":"fasum-soligi-3","Nama Fasum":"Lapangan Voli"}},{"type":"Feature","geometry":{"bbox":[127.42497641884543,-1.6588787736245423,127.42515581080978,-1.6587025472850994],"type":"Polygon","coordinates":[[[127.42504123286793,-1.658702455523442],[127.42515572500766,-1.6588110410521104],[127.42509301517691,-1.6588788670163614],[127.42497650285974,-1.6587725570387086],[127.42504123286793,-1.658702455523442]]]},"properties":{"feature_id":"fasum-soligi-4","Nama Fasum":"Lapangan Voli"}},{"type":"Feature","geometry":{"bbox":[127.42569248598672,-1.6630556663036542,127.42585370203307,-1.6629169920234481],"type":"Polygon","coordinates":[[[127.42569259600185,-1.6629168627269786],[127.42579963043923,-1.6629191694882333],[127.42579875289731,-1.6629821856511235],[127.42585361359068,-1.6630285901077846],[127.425830695108,-1.663055777234154],[127.42576866298661,-1.6630079789841627],[127.42569362751897,-1.6630076411518837],[127.42569259600185,-1.6629168627269786]]]},"properties":{"feature_id":"fasum-soligi-5","Nama Fasum":"Makam"}},{"type":"Feature","geometry":{"bbox":[127.4207835333864,-1.6580536895681703,127.42113659608773,-1.657841113769638],"type":"Polygon","coordinates":[[[127.42084535225905,-1.657840880034827],[127.42113653081957,-1.6579234763174397],[127.42111729459143,-1.658053957466108],[127.42079208264232,-1.6579959356562175],[127.42078365887195,-1.6578953823606448],[127.42084535225905,-1.657840880034827]]]},"properties":{"feature_id":"fasum-soligi-6","Nama Fasum":"Makam"}},{"type":"Feature","geometry":{"bbox":[127.41660018591388,-1.6545004113804307,127.41722176821708,-1.6539544902016945],"type":"Polygon","coordinates":[[[127.41667466345342,-1.6539540510343724],[127.41693380847934,-1.6539666777136288],[127.4172216041706,-1.6541614674591594],[127.41695600975666,-1.6545006971292973],[127.41660053551695,-1.654059549956072],[127.41667466345342,-1.6539540510343724]]]},"properties":{"feature_id":"fasum-soligi-7","Nama Fasum":"Makam"}},{"type":"Feature","geometry":{"bbox":[127.41955782081298,-1.654937437601843,127.41969360180791,-1.6548164606711293],"type":"Polygon","coordinates":[[[127.41955786955512,-1.6548758803637005],[127.41965178243775,-1.6548164271425911],[127.41969355448782,-1.6548762293126147],[127.41959940786472,-1.6549374709485423],[127.41955786955512,-1.6548758803637005]]]},"properties":{"feature_id":"fasum-soligi-8","Nama Fasum":"Makam"}},{"type":"Feature","geometry":{"bbox":[127.42290551282386,-1.65746282999055,127.42327621333116,-1.6571430355027943],"type":"Polygon","coordinates":[[[127.42298148523427,-1.6571427993914827],[127.42327613292593,-1.657244679627547],[127.42320151394466,-1.6574630671787824],[127.4229069473978,-1.6573611851999912],[127.42292633539522,-1.6573042677818985],[127.4229056440052,-1.6572970549569495],[127.4229391249435,-1.657199035383543],[127.42295981632451,-1.6572061887490044],[127.42298148523427,-1.6571427993914827]]]},"properties":{"feature_id":"fasum-soligi-9","Nama Fasum":"Masjid AL-Baqi"}},{"type":"Feature","geometry":{"bbox":[127.42479328415054,-1.6645697787047284,127.42486166216169,-1.6644894466121682],"type":"Polygon","coordinates":[[[127.42479334142014,-1.6644976313994744],[127.42485158528159,-1.6644894385125624],[127.4248616048477,-1.6645616533146883],[127.42480336099524,-1.6645697868049965],[127.42479334142014,-1.6644976313994744]]]},"properties":{"feature_id":"fasum-soligi-10","Nama Fasum":"Mushola Al-Aqhirra"}},{"type":"Feature","geometry":{"bbox":[127.42482514866799,-1.6601210015523984,127.4249340101601,-1.660006392449927],"type":"Polygon","coordinates":[[[127.42486785066502,-1.660006339416732],[127.42493394744238,-1.6600856239768271],[127.42489066739552,-1.6601210540770164],[127.42482521266749,-1.660040157994626],[127.42486785066502,-1.660006339416732]]]},"properties":{"feature_id":"fasum-soligi-11","Nama Fasum":"POSTU"}},{"type":"Feature","geometry":{"bbox":[127.4287835636415,-1.6490537371446161,127.42891813108375,-1.648860943891723],"type":"Polygon","coordinates":[[[127.42882813071157,-1.648860872412423],[127.42891811278838,-1.6488842722480377],[127.42887473285653,-1.6490538095627127],[127.42878358332425,-1.6490286444605107],[127.42882813071157,-1.648860872412423]]]},"properties":{"feature_id":"fasum-soligi-12","Nama Fasum":"RUTE"}},{"type":"Feature","geometry":{"bbox":[127.42410983575486,-1.654525668398318,127.4248098971858,-1.6534248476718585],"type":"Polygon","coordinates":[[[127.42419541806893,-1.6535836818619294],[127.42451288423872,-1.6534246104942485],[127.42480933954818,-1.6541319289923164],[127.42457351157584,-1.654361464951086],[127.42441804816461,-1.654525914745063],[127.42411048829558,-1.6536987849350533],[127.42422244333746,-1.6536503976075276],[127.42419541806893,-1.6535836818619294]]]},"properties":{"feature_id":"fasum-soligi-13","Nama Fasum":"SDN 148 HALSEL"}},{"type":"Feature","geometry":{"bbox":[127.42451232649607,-1.6541316917132243,127.42516717865838,-1.6532608676045735],"type":"Polygon","coordinates":[[[127.42451288423872,-1.6534246104942485],[127.42484132351767,-1.653260607477668],[127.42516664408969,-1.6539389247446532],[127.42480933954818,-1.6541319289923164],[127.42451288423872,-1.6534246104942485]]]},"properties":{"feature_id":"fasum-soligi-14","Nama Fasum":"SDN 148 HALSEL"}},{"type":"Feature","geometry":{"bbox":[127.42451232649607,-1.6541316917132243,127.42516717865838,-1.6532608676045735],"type":"Polygon","coordinates":[[[127.42451288423872,-1.6534246104942485],[127.42484132351767,-1.653260607477668],[127.42516664408969,-1.6539389247446532],[127.42480933954818,-1.6541319289923164],[127.42451288423872,-1.6534246104942485]]]},"properties":{"feature_id":"fasum-soligi-15","Nama Fasum":"SDN 264 HALSEL"}},{"type":"Feature","geometry":{"bbox":[127.42666538441362,-1.653622451734269,127.4275199005878,-1.6525404591277049],"type":"Polygon","coordinates":[[[127.42666597732234,-1.652869516969795],[127.42702850566967,-1.652540067588214],[127.4275192846017,-1.6533232736635852],[127.42715757943209,-1.6536228442584084],[127.42666597732234,-1.652869516969795]]]},"properties":{"feature_id":"fasum-soligi-16","Nama Fasum":"SMAN 35 HALSEL"}},{"type":"Feature","geometry":{"bbox":[127.42719557447224,-1.6530991037651552,127.42818000945555,-1.652021341053514],"type":"Polygon","coordinates":[[[127.42719613692084,-1.6523843913137666],[127.42755721071572,-1.6520208451558387],[127.42817942039365,-1.652770497097632],[127.42779375555027,-1.6530995804851936],[127.42719613692084,-1.6523843913137666]]]},"properties":{"feature_id":"fasum-soligi-17","Nama Fasum":"SMPN 39 Halsesl"}},{"type":"Feature","geometry":{"type":"Point","coordinates":[127.40886225737556,-1.6611699510659959]},"properties":{"feature_id":"fasum-soligi-18","Nama Fasum":"Menara Suar Tanjung Akelamo"}}]}