{"type":"FeatureCollection","features":[{"type":"Feature","geometry":{"bbox":[127.41610398841073,-1.5911128020489729,127.41656314130208,-1.5906063093959297],"type":"Polygon","coordinates":[[[127.41630807229522,-1.590666414088794],[127.41636369572161,-1.5906061553768642],[127.41656301299957,-1.5907745707512437],[127.41629107624823,-1.591112946595193],[127.4161041197317,-1.5909406684828564],[127.41615897061052,-1.5908819548661022],[127.41628412331993,-1.5909877938857824],[127.41645949162262,-1.5907830687747206],[127.41630807229522,-1.590666414088794]]]},"properties":{"id":null,"Nama Fasum":"Sekolah Dasar","feature_id":"fasum-0"}},{"type":"Feature","geometry":{"bbox":[127.41588407357136,-1.591838689657136,127.4163143526572,-1.591426446537627],"type":"Polygon","coordinates":[[[127.41589592381673,-1.5916541722499333],[127.41610997885628,-1.5914342257872363],[127.41621602447225,-1.5914263705564313],[127.41631225104966,-1.5915049228645275],[127.41631421485735,-1.59160704086507],[127.41612568931791,-1.591826987327764],[127.41598822277872,-1.5918387701739776],[127.41588414097048,-1.5917503988273642],[127.41589592381673,-1.5916541722499333]]]},"properties":{"id":null,"Nama Fasum":"Gedung Serbaguna","feature_id":"fasum-1"}},{"type":"Feature","geometry":{"bbox":[127.41551955944288,-1.5942254662338418,127.41600313696983,-1.5937541997375904],"type":"Polygon","coordinates":[[[127.41551978621271,-1.5939288983349393],[127.41568840532,-1.593753956114938],[127.41600291937549,-1.594038887165213],[127.41585656134967,-1.594225727198201],[127.41585656134967,-1.594225727198201],[127.41551978621271,-1.5939288983349393]]]},"properties":{"id":null,"Nama Fasum":"Gereja","feature_id":"fasum-2"}},{"type":"Feature","geometry":{"bbox":[127.41865850580506,-1.5903359824572243,127.41900790968353,-1.5899967813277465],"type":"Polygon","coordinates":[[[127.41865858027427,-1.590238166080902],[127.41875521208331,-1.58999658655829],[127.41900783524125,-1.5900945988217479],[127.41891258388662,-1.5903361783443615],[127.41865858027427,-1.590238166080902]]]},"properties":{"id":null,"Nama Fasum":"Masjid","feature_id":"fasum-3"}},{"type":"Feature","geometry":{"bbox":[127.41695249206974,-1.591281102025102,127.41711623783215,-1.5911274995500022],"type":"Polygon","coordinates":[[[127.41695252560511,-1.5912371272266659],[127.41699659350046,-1.5911274071607213],[127.41711620635922,-1.591168777021643],[127.41707303780869,-1.591281195122],[127.41695252560511,-1.5912371272266659]]]},"properties":{"id":null,"Nama Fasum":"Mushola","feature_id":"fasum-4"}},{"type":"Feature","geometry":{"bbox":[127.4163999376937,-1.5907089642288257,127.41677956314292,-1.5903726497958968],"type":"Polygon","coordinates":[[[127.41651860599558,-1.5904971714965457],[127.41662091238656,-1.5905838656456466],[127.41671367717235,-1.5904739833633152],[127.41677944357247,-1.590529504652906],[127.41668667878672,-1.5906393869352433],[127.4166276568886,-1.5907091400875522],[127.41645958409453,-1.5905669246463734],[127.41640008439926,-1.5905165787503732],[127.41652203866738,-1.5903724509789443],[127.41658153836265,-1.5904227968749514],[127.41651860599558,-1.5904971714965457]]]},"properties":{"id":null,"Nama Fasum":"SMP","feature_id":"fasum-5"}},{"type":"Feature","geometry":{"bbox":[127.4165675751523,-1.5905232662027948,127.41692521712565,-1.5901572151615089],"type":"Polygon","coordinates":[[[127.41656774649962,-1.5902985138721761],[127.41669546792671,-1.5901570378298193],[127.41675939422439,-1.5902147490707699],[127.41692505978078,-1.5903636669663346],[127.4168631141369,-1.5904325791647036],[127.41678312371235,-1.5905234326262083],[127.41672036404516,-1.5904665185539013],[127.4168003544688,-1.5903756650930838],[127.4166974485805,-1.5902836612691391],[127.41663167279728,-1.5903562251131005],[127.41656774649962,-1.5902985138721761]]]},"properties":{"id":null,"Nama Fasum":"SMA","feature_id":"fasum-6"}},{"type":"Feature","geometry":{"bbox":[127.41650690037604,-1.5913423285040005,127.41661027703465,-1.5912402034616155],"type":"Polygon","coordinates":[[[127.41650693697417,-1.5912943528191663],[127.41655050592959,-1.5912401572892494],[127.41661024044015,-1.5912881791506854],[127.4165666714847,-1.591342374680603],[127.41650693697417,-1.5912943528191663]]]},"properties":{"id":null,"Nama Fasum":"Taman Ceria","feature_id":"fasum-7"}},{"type":"Feature","geometry":{"bbox":[127.41641221825955,-1.5912650483945174,127.41667086657098,-1.591020345824604],"type":"Polygon","coordinates":[[[127.4164123604612,-1.5910786333569664],[127.41646549333365,-1.5910201871972496],[127.41667072439776,-1.5912067608919003],[127.41661759152531,-1.591265207051622],[127.4164123604612,-1.5910786333569664]]]},"properties":{"id":null,"Nama Fasum":"Taman ceria","feature_id":"fasum-8"}},{"type":"Feature","geometry":{"bbox":[127.41682492469388,-1.5914492150756299,127.41700830734217,-1.5912657179625986],"type":"Polygon","coordinates":[[[127.41692333789592,-1.591265652339792],[127.41700824416618,-1.5913485608154514],[127.4169098941514,-1.5914492807100897],[127.41682498788117,-1.5913663722344273],[127.41692333789592,-1.591265652339792]]]},"properties":{"id":null,"Nama Fasum":"Kantor Desa","feature_id":"fasum-9"}},{"type":"Feature","geometry":{"bbox":[127.41675525697694,-1.5915799329965148,127.41690065808422,-1.5914360332172146],"type":"Polygon","coordinates":[[[127.41675531042665,-1.5915098659184526],[127.41681820097543,-1.5914359695236209],[127.41690060464188,-1.5915061003035906],[127.4168377140931,-1.5915799966984037],[127.41675531042665,-1.5915098659184526]]]},"properties":{"id":null,"Nama Fasum":"Kantor Advokasi","feature_id":"fasum-10"}},{"type":"Feature","geometry":{"bbox":[127.4164658678976,-1.591875742076236,127.41673759910893,-1.5916032151065522],"type":"Polygon","coordinates":[[[127.4164659612267,-1.5917534402988691],[127.41659612096798,-1.5916031057976807],[127.41673750580463,-1.5917255169116544],[127.41660734606336,-1.5918758514128304],[127.4164659612267,-1.5917534402988691]]]},"properties":{"id":null,"Nama Fasum":"Puskesmas","feature_id":"fasum-11"}},{"type":"Feature","geometry":{"bbox":[127.41756615601601,-1.5927549081963153,127.41778382113398,-1.5925289495701778],"type":"Polygon","coordinates":[[[127.41769769977512,-1.5925288830375923],[127.41778376408773,-1.5926037319592923],[127.41765227738688,-1.5927549747438778],[127.41756621307549,-1.5926801258229752],[127.41769769977512,-1.5925288830375923]]]},"properties":{"id":null,"Nama Fasum":"Lapangan Volly","feature_id":"fasum-12"}},{"type":"Feature","geometry":{"bbox":[127.41559237460551,-1.5908795221774146,127.4166598857611,-1.5897771455976442],"type":"Polygon","coordinates":[[[127.41627362894185,-1.58977684747218],[127.41665962035786,-1.5901253898867957],[127.41597863169685,-1.5908798206380674],[127.4155926403135,-1.5905312782448093],[127.41627362894185,-1.58977684747218]]]},"properties":{"id":null,"Nama Fasum":"Lapangan Sepak Bola","feature_id":"fasum-13"}}]}